[{"OBJECT_NAME":"STARLINK-36446","OBJECT_ID":"2026-005J","EPOCH":"2026-03-09T22:00:01.999584","MEAN_MOTION":15.27548085,"ECCENTRICITY":0.00014787,"INCLINATION":43.0009,"RA_OF_ASC_NODE":236.6879,"ARG_OF_PERICENTER":270.1245,"MEAN_ANOMALY":9.9351,"EPHEMERIS_TYPE":0,"CLASSIFICATION_TYPE":"U","NORAD_CAT_ID":67412,"ELEMENT_SET_NO":999,"REV_AT_EPOCH":590,"BSTAR":0.002678876,"MEAN_MOTION_DOT":0.00074126,"MEAN_MOTION_DDOT":0},{"OBJECT_NAME":"CZ-2C DEB","OBJECT_ID":"2026-009C","EPOCH":"2026-03-09T19:20:16.840608","MEAN_MOTION":15.15876918,"ECCENTRICITY":0.01015815,"INCLINATION":97.2202,"RA_OF_ASC_NODE":140.8028,"ARG_OF_PERICENTER":36.3959,"MEAN_ANOMALY":324.4125,"EPHEMERIS_TYPE":0,"CLASSIFICATION_TYPE":"U","NORAD_CAT_ID":67586,"ELEMENT_SET_NO":999,"REV_AT_EPOCH":810,"BSTAR":0.0025681251,"MEAN_MOTION_DOT":0.0005635,"MEAN_MOTION_DDOT":0}]
